$$SOE
2460728.500000000, A.D. 2025-Feb-22 00:00:00.0000, -2.105250123773414E+07, 4.166046638216981E+08, -4.414771683386457E+07,
2460735.500000000, A.D. 2025-Mar-01 00:00:00.0000, -3.031755274462992E+07, 4.141673821766378E+08, -4.322921223915417E+07,
2460742.500000000, A.D. 2025-Mar-08 00:00:00.0000, -3.956225253014030E+07, 4.114540969928834E+08, -4.228184026507738E+07,
2460749.500000000, A.D. 2025-Mar-15 00:00:00.0000, -4.878004704625446E+07, 4.084626099062343E+08, -4.130582368331873E+07,
2460756.500000000, A.D. 2025-Mar-22 00:00:00.0000, -5.796419768222912E+07, 4.051907603795244E+08, -4.030140205112930E+07,
2460763.500000000, A.D. 2025-Mar-29 00:00:00.0000, -6.710777178625964E+07, 4.016364296415212E+08, -3.926883309266175E+07,
2460770.500000000, A.D. 2025-Apr-05 00:00:00.0000, -7.620363162539203E+07, 3.977975461919866E+08, -3.820839426413971E+07,
2460777.500000000, A.D. 2025-Apr-12 00:00:00.0000, -8.524442320436276E+07, 3.936720930421310E+08, -3.712038432570411E+07,
2460784.500000000, A.D. 2025-Apr-19 00:00:00.0000, -9.422256512879370E+07, 3.892581158776289E+08, -3.600512498243833E+07,
2460791.500000000, A.D. 2025-Apr-26 00:00:00.0000, -1.031302372436701E+08, 3.845537320168640E+08, -3.486296264428073E+07,
2460798.500000000, A.D. 2025-May-03 00:00:00.0000, -1.119593689400323E+08, 3.795571402670864E+08, -3.369427032251526E+07,
2460805.500000000, A.D. 2025-May-10 00:00:00.0000, -1.207016271125961E+08, 3.742666317783933E+08, -3.249944967407654E+07,
2460812.500000000, A.D. 2025-May-17 00:00:00.0000, -1.293484037486161E+08, 3.686806019537754E+08, -3.127893321013460E+07,
2460819.500000000, A.D. 2025-May-24 00:00:00.0000, -1.378908029981021E+08, 3.627975634684368E+08, -3.003318669946480E+07,
2460826.500000000, A.D. 2025-May-31 00:00:00.0000, -1.463196273403418E+08, 3.566161608260413E+08, -2.876271178997022E+07,
2460833.500000000, A.D. 2025-Jun-07 00:00:00.0000, -1.546253632912604E+08, 3.501351877841988E+08, -2.746804872422084E+07,
2460840.500000000, A.D. 2025-Jun-14 00:00:00.0000, -1.627981690700390E+08, 3.433536071221963E+08, -2.614977899847598E+07,
2460847.500000000, A.D. 2025-Jun-21 00:00:00.0000, -1.708278630715899E+08, 3.362705696249011E+08, -2.480852835487981E+07,
2460854.500000000, A.D. 2025-Jun-28 00:00:00.0000, -1.787039101010338E+08, 3.288854341994923E+08, -2.344497025958760E+07,
2460861.500000000, A.D. 2025-Jul-05 00:00:00.0000, -1.864154069933392E+08, 3.211977914525627E+08, -2.205982956342639E+07,
2460868.500000000, A.D. 2025-Jul-12 00:00:00.0000, -1.939510689322166E+08, 3.132074901043386E+08, -2.065388631309815E+07,
2460875.500000000, A.D. 2025-Jul-19 00:00:00.0000, -2.012992164261550E+08, 3.049146658532398E+08, -1.922797978716828E+07,
2460882.500000000, A.D. 2025-Jul-26 00:00:00.0000, -2.084477629093066E+08, 2.963197728315165E+08, -1.778301278955662E+07,
2460889.500000000, A.D. 2025-Aug-02 00:00:00.0000, -2.153842031130395E+08, 2.874236178795686E+08, -1.631995621227959E+07,
2460896.500000000, A.D. 2025-Aug-09 00:00:00.0000, -2.220956024338434E+08, 2.782273978367253E+08, -1.483985387632424E+07,
2460903.500000000, A.D. 2025-Aug-16 00:00:00.0000, -2.285685875128155E+08, 2.687327400012432E+08, -1.334382766572921E+07,
2460910.500000000, A.D. 2025-Aug-23 00:00:00.0000, -2.347893380750557E+08, 2.589417459917241E+08, -1.183308297970192E+07,
2460917.500000000, A.D. 2025-Aug-30 00:00:00.0000, -2.407435800965388E+08, 2.488570399345521E+08, -1.030891446952768E+07,
2460924.500000000, A.D. 2025-Sep-06 00:00:00.0000, -2.464165821774341E+08, 2.384818221787068E+08, -8.772711838293731E+06,
2460931.500000000, A.D. 2025-Sep-13 00:00:00.0000, -2.517931573229172E+08, 2.278199262430322E+08, -7.225965736791477E+06,
2460938.500000000, A.D. 2025-Sep-20 00:00:00.0000, -2.568576674555193E+08, 2.168758775097184E+08, -5.670274164401546E+06,
2460945.500000000, A.D. 2025-Sep-27 00:00:00.0000, -2.615940302815745E+08, 2.056549568864934E+08, -4.107349181180686E+06,
2460952.500000000, A.D. 2025-Oct-04 00:00:00.0000, -2.659857313069844E+08, 1.941632700436222E+08, -2.539023655480802E+06,
2460959.500000000, A.D. 2025-Oct-11 00:00:00.0000, -2.700158422394064E+08, 1.824078212859544E+08, -9.672580287576914E+05,
2460966.500000000, A.D. 2025-Oct-18 00:00:00.0000, -2.736670464427755E+08, 1.703965916915236E+08, 6.058529333776683E+05,
2460973.500000000, A.D. 2025-Oct-25 00:00:00.0000, -2.769216723498754E+08, 1.581386213101543E+08, 2.178073491114452E+06,
2460980.500000000, A.D. 2025-Nov-01 00:00:00.0000, -2.797617359414367E+08, 1.456440950726469E+08, 3.747020499571949E+06,
2460987.500000000, A.D. 2025-Nov-08 00:00:00.0000, -2.821689935064137E+08, 1.329244318447359E+08, 5.310157335596301E+06,
2460994.500000000, A.D. 2025-Nov-15 00:00:00.0000, -2.841250058683655E+08, 1.199923758360129E+08, 6.864788335383549E+06,
2461001.500000000, A.D. 2025-Nov-22 00:00:00.0000, -2.856112150612985E+08, 1.068620896154876E+08, 8.408053926747918E+06,
2461008.500000000, A.D. 2025-Nov-29 00:00:00.0000, -2.866090350141131E+08, 9.354924861461377E+07, 9.936926799659014E+06,
2461015.500000000, A.D. 2025-Dec-06 00:00:00.0000, -2.870999599132504E+08, 8.007113539643493E+07, 1.144820958475554E+07,
2461022.500000000, A.D. 2025-Dec-13 00:00:00.0000, -2.870656911421089E+08, 6.644672837045571E+07, 1.293853403204953E+07,
2461029.500000000, A.D. 2025-Dec-20 00:00:00.0000, -2.864882804939724E+08, 5.269678362968695E+07, 1.440436179586819E+07,
2461036.500000000, A.D. 2025-Dec-27 00:00:00.0000, -2.853502916910351E+08, 3.884390971666980E+07, 1.584198751044209E+07,
2461043.500000000, A.D. 2026-Jan-03 00:00:00.0000, -2.836349823212171E+08, 2.491263146969429E+07, 1.724754463809664E+07,
2461050.500000000, A.D. 2026-Jan-10 00:00:00.0000, -2.813265063071032E+08, 1.092943860976590E+07, 1.861701444015730E+07,
2461057.500000000, A.D. 2026-Jan-17 00:00:00.0000, -2.784101363191525E+08, -3.077185086460426E+06, 1.994623846259484E+07,
2461064.500000000, A.D. 2026-Jan-24 00:00:00.0000, -2.748725049788488E+08, -1.707675641531550E+07, 2.123093493918273E+07,
2461071.500000000, A.D. 2026-Jan-31 00:00:00.0000, -2.707018628879022E+08, -3.103681583651647E+07, 2.246671948276102E+07,
2461078.500000000, A.D. 2026-Feb-07 00:00:00.0000, -2.658883504760679E+08, -4.492298382656875E+07, 2.364913036667247E+07,
2461085.500000000, A.D. 2026-Feb-14 00:00:00.0000, -2.604242793396762E+08, -5.869905514399439E+07, 2.477365859274152E+07,
2461092.500000000, A.D. 2026-Feb-21 00:00:00.0000, -2.543044173912062E+08, -7.232713469892484E+07, 2.583578285267984E+07,
2461099.500000000, A.D. 2026-Feb-28 00:00:00.0000, -2.475262723612286E+08, -8.576781747789016E+07, 2.683100951058484E+07,
2461106.500000000, A.D. 2026-Mar-07 00:00:00.0000, -2.400903679618985E+08, -9.898041707584193E+07, 2.775491737422967E+07,
2461113.500000000, A.D. 2026-Mar-14 00:00:00.0000, -2.320005011249222E+08, -1.119232464067474E+08, 2.860320632431308E+07,
2461120.500000000, A.D. 2026-Mar-21 00:00:00.0000, -2.232639688956746E+08, -1.245539472045659E+08, 2.937174914443935E+07,
2461127.500000000, A.D. 2026-Mar-28 00:00:00.0000, -2.138917568794990E+08, -1.368298647453930E+08, 3.005664583249699E+07,
2461134.500000000, A.D. 2026-Apr-04 00:00:00.0000, -2.038986797260154E+08, -1.487084639370855E+08, 3.065427912954027E+07,
2461141.500000000, A.D. 2026-Apr-11 00:00:00.0000, -1.933034638423550E+08, -1.601477799280463E+08, 3.116136974880183E+07,
2461148.500000000, A.D. 2026-Apr-18 00:00:00.0000, -1.821287638665483E+08, -1.711068936687860E+08, 3.157502965741532E+07,
2461155.500000000, A.D. 2026-Apr-25 00:00:00.0000, -1.704011064086115E+08, -1.815464206812633E+08, 3.189281167342039E+07,
2461162.500000000, A.D. 2026-May-02 00:00:00.0000, -1.581507570440564E+08, -1.914289995967414E+08, 3.211275362063974E+07,
2461169.500000000, A.D. 2026-May-09 00:00:00.0000, -1.454115094131015E+08, -2.007197659257862E+08, 3.223341535418181E+07,
2461176.500000000, A.D. 2026-May-16 00:00:00.0000, -1.322203983138146E+08, -2.093867959402662E+08, 3.225390714873690E+07,
2461183.500000000, A.D. 2026-May-23 00:00:00.0000, -1.186173423893643E+08, -2.174015051365126E+08, 3.217390832891200E+07,
2461190.500000000, A.D. 2026-May-30 00:00:00.0000, -1.046447273674406E+08, -2.247389878055580E+08, 3.199367552994864E+07,
2461197.500000000, A.D. 2026-Jun-06 00:00:00.0000, -9.034694186839779E+07, -2.313782900136962E+08, 3.171403996017836E+07,
2461204.500000000, A.D. 2026-Jun-13 00:00:00.0000, -7.576987601156899E+07, -2.373026076971880E+08, 3.133639343250016E+07,
2461211.500000000, A.D. 2026-Jun-20 00:00:00.0000, -6.096039861421334E+07, -2.424994021800789E+08, 3.086266401145727E+07,
2461218.500000000, A.D. 2026-Jun-27 00:00:00.0000, -4.596583047135711E+07, -2.469604322256987E+08, 3.029528239405360E+07,
2461225.500000000, A.D. 2026-Jul-04 00:00:00.0000, -3.083342909139878E+07, -2.506817056449092E+08, 2.963714030259694E+07,
2461232.500000000, A.D. 2026-Jul-11 00:00:00.0000, -1.560989875183370E+07, -2.536633560100499E+08, 2.889154245022233E+07,
2461239.500000000, A.D. 2026-Jul-18 00:00:00.0000, -3.409379446014846E+05, -2.559094525258514E+08, 2.806215381437328E+07,
2461246.500000000, A.D. 2026-Jul-25 00:00:00.0000, 1.492916610344760E+07, -2.574277531484918E+08, 2.715294400421758E+07,
2461253.500000000, A.D. 2026-Aug-01 00:00:00.0000, 3.015788889010051E+07, -2.582294123883078E+08, 2.616813045394641E+07,
2461260.500000000, A.D. 2026-Aug-08 00:00:00.0000, 4.530476206729029E+07, -2.583286557728225E+08, 2.511212202508117E+07,
2461267.500000000, A.D. 2026-Aug-15 00:00:00.0000, 6.033160766772594E+07, -2.577424323321956E+08, 2.398946441876411E+07,
2461274.500000000, A.D. 2026-Aug-22 00:00:00.0000, 7.520271313972478E+07, -2.564900549971471E+08, 2.280478872233470E+07,
2461281.500000000, A.D. 2026-Aug-29 00:00:00.0000, 8.988494766166022E+07, -2.545928402593381E+08, 2.156276407698300E+07,
2461288.500000000, A.D. 2026-Sep-05 00:00:00.0000, 1.043478261918374E+08, -2.520737585383677E+08, 2.026805466804639E+07,
2461295.500000000, A.D. 2026-Sep-12 00:00:00.0000, 1.185635291286720E+08, -2.489570998097771E+08, 1.892528141390449E+07,
$$EOE